     2.100          NAVIGATION                              RINEX VERSION / TYPE
fic2rin                                 12/08/2011 00:05:37 PGM / RUN BY / DATE
                                                            END OF HEADER
 4 11 12  7 12  0  0.0  .260677188635D-04  .113686837722D-10  .000000000000D+00
     .840000000000D+02 -.126875000000D+02  .514057126828D-08 -.183649815293D+01
    -.715255737305D-06  .100123096490D-01  .762194395065D-05  .515374995804D+04
     .302400000000D+06  .150874257088D-06  .190412373405D+01 -.335276126862D-07
     .937447980311D+00  .218125000000D+03  .809577719602D+00 -.811855245601D-08
    -.437518224390D-09  .100000000000D+01  .166500000000D+04  .000000000000D+00
     .240000000000D+01  .000000000000D+00 -.651925802231D-08  .840000000000D+02
     .295206000000D+06  .400000000000D+01
 5 11 12  7 12  0  0.0 -.254821497947D-03 -.488853402203D-11  .000000000000D+00
     .110000000000D+02  .107031250000D+03  .438303971405D-08 -.307923875481D+01
     .547431409359D-05  .259672023822D-02  .983104109764D-05  .515357381439D+04
     .302400000000D+06  .186264514923D-07  .294947800164D+01  .000000000000D+00
     .952809525690D+00  .187687500000D+03  .243263224364D+00 -.792997317236D-08
    -.807176479283D-10  .100000000000D+01  .166500000000D+04  .000000000000D+00
     .240000000000D+01  .000000000000D+00 -.102445483208D-07  .110000000000D+02
     .295206000000D+06  .400000000000D+01
 6 11 12  7 12  0  0.0  .122967176139D-04  .443378667114D-11  .000000000000D+00
     .760000000000D+02  .197187500000D+02  .542629745564D-08 -.288000097041D+01
     .114738941193D-05  .676502392162D-02  .570900738239D-05  .515369618034D+04
     .302400000000D+06 -.968575477600D-07  .800745062040D+00  .912696123123D-07
     .936866881455D+00  .254781250000D+03 -.639351950158D+00 -.826963017758D-08
     .372158359032D-09  .100000000000D+01  .166500000000D+04  .000000000000D+00
     .340000000000D+01  .000000000000D+00 -.512227416039D-08  .760000000000D+02
     .295206000000D+06  .400000000000D+01
 8 11 12  7 12  0  0.0  .192783772945D-06  .113686837722D-12  .000000000000D+00
     .370000000000D+02 -.937812500000D+02  .368051045089D-08 -.772165806045D+00
    -.497139990330D-05  .121233732207D-01  .591576099396D-05  .515372783470D+04
     .302400000000D+06  .227242708206D-06 -.114544137184D+01 -.875443220139D-07
     .997229944756D+00  .279281250000D+03 -.299218926572D+01 -.778246702813D-08
    -.992898501065D-10  .100000000000D+01  .166500000000D+04  .000000000000D+00
     .340000000000D+01  .000000000000D+00 -.419095158577D-08  .370000000000D+02
     .295206000000D+06  .400000000000D+01
 9 11 12  7 12  0  0.0  .123357865959D-03  .250111042988D-11  .000000000000D+00
     .810000000000D+02 -.107406250000D+03  .411302846700D-08 -.886822137782D+00
    -.543892383575D-05  .171539217699D-01  .561401247978D-05  .515364874840D+04
     .302400000000D+06 -.212341547012D-06 -.125212232186D+01  .130385160446D-06
     .984050309508D+00  .289187500000D+03  .160177521756D+01 -.825891544555D-08
    -.134291308058D-09  .100000000000D+01  .166500000000D+04  .000000000000D+00
     .340000000000D+01  .000000000000D+00 -.558793544769D-08  .810000000000D+02
     .295206000000D+06  .400000000000D+01
10 11 12  7 12  0  0.0 -.213943421841D-04 -.125055521494D-11  .000000000000D+00
     .690000000000D+02  .970625000000D+02  .442732727309D-08 -.268509271694D+01
     .495836138725D-05  .108951459406D-01  .960007309914D-05  .515365877342D+04
     .302400000000D+06  .353902578354D-07  .297202541965D+01 -.931322574615D-07
     .947728306494D+00  .187625000000D+03  .722752548516D+00 -.780961101593D-08
    -.714315468392D-11  .100000000000D+01  .166500000000D+04  .000000000000D+00
     .340000000000D+01  .000000000000D+00 -.279396772385D-08  .690000000000D+02
     .295206000000D+06  .400000000000D+01
11 11 12  7 12  0  0.0 -.210913363844D-03 -.352429196937D-11  .000000000000D+00
     .430000000000D+02 -.240937500000D+02  .668920720376D-08 -.460175628048D-01
    -.112131237984D-05  .126711997436D-01  .587105751038D-05  .515366550064D+04
     .302400000000D+06 -.763684511185D-07  .163960446946D+01  .147148966789D-06
     .887479094792D+00  .225187500000D+03  .101011992661D+01 -.924824236927D-08
    -.429660754238D-09  .100000000000D+01  .166500000000D+04  .000000000000D+00
     .240000000000D+01  .000000000000D+00 -.116415321827D-07  .430000000000D+02
     .295206000000D+06  .400000000000D+01
13 11 12  7 12  0  0.0  .237548258156D-03 -.204636307899D-11  .000000000000D+00
     .420000000000D+02  .431250000000D+02  .395766485263D-08  .220570213975D+01
     .227428972721D-05  .459770718589D-02  .198930501938D-05  .515374752998D+04
     .302400000000D+06  .670552253723D-07 -.219795115212D+01  .391155481339D-07
     .987662875986D+00  .353375000000D+03  .194973562529D+01 -.797104631179D-08
     .104290058385D-09  .100000000000D+01  .166500000000D+04  .000000000000D+00
     .240000000000D+01  .000000000000D+00 -.116415321827D-07  .420000000000D+02
     .295206000000D+06  .400000000000D+01
14 11 12  7 12  0  0.0  .184683594853D-03  .170530256582D-11  .000000000000D+00
     .540000000000D+02  .519687500000D+02  .412552898770D-08  .223310627023D+01
     .266171991825D-05  .629488262348D-02  .190362334251D-05  .515374716568D+04
     .302400000000D+06 -.111758708954D-07 -.222347389533D+01 -.987201929092D-07
     .980607789702D+00  .351156250000D+03 -.205757946791D+01 -.808926552181D-08
     .181078971237D-09  .100000000000D+01  .166500000000D+04  .000000000000D+00
     .240000000000D+01  .000000000000D+00 -.884756445885D-08  .540000000000D+02
     .295206000000D+06  .400000000000D+01
15 11 12  7 12  0  0.0 -.973576679826D-04  .909494701773D-12  .000000000000D+00
     .600000000000D+01  .675625000000D+02  .495092051143D-08  .193585590474D+01
     .354833900928D-05  .405188428704D-02  .167265534401D-05  .515373238564D+04
     .302400000000D+06 -.279396772385D-07 -.230565128498D+01  .279396772385D-07
     .947652015316D+00  .340750000000D+03 -.470196953362D-01 -.854821321025D-08
     .119290683221D-09  .100000000000D+01  .166500000000D+04  .000000000000D+00
     .240000000000D+01  .000000000000D+00 -.102445483208D-07  .600000000000D+01
     .295206000000D+06  .400000000000D+01
17 11 12  7 12  0  0.0  .161844305694D-03 -.204636307899D-11  .000000000000D+00
     .840000000000D+02  .615625000000D+01  .482877256633D-08  .265109323974D+01
     .245869159698D-06  .685368513223D-02  .584684312344D-05  .515360039902D+04
     .302400000000D+06 -.465661287308D-07  .889537929625D+00 -.115483999252D-06
     .961853238442D+00  .266906250000D+03 -.239183174660D+01 -.797783230874D-08
     .208222959036D-09  .100000000000D+01  .166500000000D+04  .000000000000D+00
     .340000000000D+01  .000000000000D+00 -.107102096081D-07  .840000000000D+02
     .295206000000D+06  .400000000000D+01
18 11 12  7 12  0  0.0  .170698389411D-03  .181898940355D-11  .000000000000D+00
     .670000000000D+02  .103312500000D+03  .472519682341D-08 -.219594111438D+01
     .530481338501D-05  .127318060258D-01  .994279980659D-05  .515366076088D+04
     .302400000000D+06  .104308128357D-06  .296349012359D+01 -.145286321640D-06
     .931571973815D+00  .172750000000D+03 -.220373852041D+01 -.788354266691D-08
     .164292557730D-10  .100000000000D+01  .166500000000D+04  .000000000000D+00
     .240000000000D+01  .000000000000D+00 -.111758708954D-07  .670000000000D+02
     .295206000000D+06  .400000000000D+01
19 11 12  7 12  0  0.0 -.212648883462D-03 -.397903932026D-11  .000000000000D+00
     .930000000000D+02  .662500000000D+01  .505842498942D-08  .185213982225D+01
     .519677996635D-06  .772103935014D-02  .559911131859D-05  .515371776390D+04
     .302400000000D+06 -.186264514923D-08  .943040900456D+00  .225380063057D-06
     .959243737838D+00  .271031250000D+03  .134284138296D+00 -.823605735056D-08
     .139291516336D-09  .100000000000D+01  .166500000000D+04  .000000000000D+00
     .240000000000D+01  .000000000000D+00 -.144354999065D-07  .930000000000D+02
     .295206000000D+06  .400000000000D+01
20 11 12  7 12  0  0.0  .575422309339D-04  .795807864051D-12  .000000000000D+00
     .320000000000D+02  .818437500000D+02  .484270171796D-08 -.172957110497D+01
     .423006713390D-05  .495542818680D-02  .946968793869D-05  .515382425690D+04
     .302400000000D+06  .124797224998D-06  .290968681422D+01  .465661287308D-07
     .931873769426D+00  .182843750000D+03  .126194417683D+01 -.808569394447D-08
    -.178936024832D-09  .100000000000D+01  .166500000000D+04  .000000000000D+00
     .240000000000D+01  .000000000000D+00 -.791624188423D-08  .320000000000D+02
     .295206000000D+06  .400000000000D+01
21 11 12  7 12  0  0.0 -.189321115613D-03 -.250111042988D-11  .000000000000D+00
     .120000000000D+02 -.149687500000D+02  .533022202514D-08 -.112198321712D+01
    -.733882188797D-06  .182821101043D-01  .775046646595D-05  .515367597771D+04
     .302400000000D+06  .413507223129D-06  .191124143177D+01  .208616256714D-06
     .931109513226D+00  .210750000000D+03 -.231372774848D+01 -.833070415012D-08
    -.615025618286D-09  .100000000000D+01  .166500000000D+04  .000000000000D+00
     .240000000000D+01  .000000000000D+00 -.111758708954D-07  .120000000000D+02
     .295206000000D+06  .400000000000D+01
22 11 12  7 12  0  0.0  .143207609653D-03 -.227373675443D-12  .000000000000D+00
     .810000000000D+02  .101000000000D+03  .480591447134D-08 -.305912269496D+01
     .520423054695D-05  .576477637514D-02  .984221696854D-05  .515370651817D+04
     .302400000000D+06  .242143869400D-07  .296722672211D+01 -.242143869400D-07
     .929281507848D+00  .171312500000D+03 -.197809986012D+01 -.800140471919D-08
    -.610739725475D-10  .100000000000D+01  .166500000000D+04  .000000000000D+00
     .485000000000D+01  .000000000000D+00 -.167638063431D-07  .810000000000D+02
     .295206000000D+06  .400000000000D+01
